{"type": "FeatureCollection", "features": [{"type": "Feature", "properties": {"minutes": 10, "halte_count": 42, "area_km2": 13.212}, "geometry": {"type": "MultiPolygon", "coordinates": [[[[110.442409, -7.073062], [110.441005, -7.07317], [110.439254, -7.072408], [110.434005, -7.072562], [110.433005, -7.072139], [110.432005, -7.073072], [110.431704, -7.072958], [110.429682, -7.06898], [110.429094, -7.065657], [110.431005, -7.065188], [110.433556, -7.066657], [110.435005, -7.066759], [110.435375, -7.065028], [110.436119, -7.064772], [110.43641469563181, -7.064165267457422], [110.4360638158861, -7.063882035413418], [110.434262, -7.063911], [110.43310031533787, -7.060281267337702], [110.431951, -7.058872], [110.43191439321639, -7.058868395257301], [110.431262, -7.059374], [110.43089289028306, -7.059404550841885], [110.430686, -7.059665], [110.429078, -7.059745], [110.427629, -7.058137], [110.427833, -7.057285], [110.42784856026341, -7.057276714664937], [110.42711, -7.055722], [110.427384, -7.053752], [110.42653, -7.051722], [110.427414, -7.051126], [110.429414, -7.05111], [110.42948119209095, -7.051214864644043], [110.431639, -7.051121], [110.432712, -7.050407], [110.433295, -7.04899], [110.434014, -7.048709], [110.434452, -7.047147], [110.435639, -7.046632], [110.436781, -7.048191], [110.436158, -7.049333], [110.437957, -7.050333], [110.43773190405848, -7.050923802996106], [110.439279, -7.050134], [110.43960591668595, -7.050305958176808], [110.439078, -7.049653], [110.440378, -7.048481], [110.441378, -7.049076], [110.441853, -7.048653], [110.440891, -7.047653], [110.441164, -7.04544], [110.443112, -7.045388], [110.443378, -7.045038], [110.445378, -7.0468], [110.446378, -7.045515], [110.448378, -7.045545], [110.447896, -7.048653], [110.447234, -7.04951], [110.447231, -7.052653], [110.44721762055805, -7.052692510718775], [110.447815, -7.052875], [110.44779794675603, -7.055567788429706], [110.448094, -7.055647], [110.44826191497762, -7.056187920139353], [110.448539, -7.054301], [110.449874, -7.054268], [110.450137, -7.054635], [110.44971856479476, -7.055374284814916], [110.44996979659683, -7.055816149793421], [110.450467, -7.056042], [110.450731, -7.056778], [110.452514, -7.056995], [110.453392, -7.057635], [110.45232863314162, -7.058172721674948], [110.452186, -7.059512], [110.45207323795913, -7.059623740414232], [110.452081, -7.059647], [110.4511349290856, -7.061080831210734], [110.451108, -7.061192], [110.45105565465964, -7.061200976692882], [110.451053, -7.061205], [110.45100479801575, -7.061213482558564], [110.45099, -7.061332], [110.44937948370173, -7.061751648137939], [110.44923042283897, -7.062100450556819], [110.449207, -7.063291], [110.44906977096025, -7.063489742844419], [110.449208, -7.063647], [110.449149, -7.064301], [110.44870548176425, -7.065587585226969], [110.448677, -7.065782], [110.44796253088441, -7.066579708235847], [110.447496, -7.067182], [110.44744246004137, -7.067160369856714], [110.447441, -7.067162], [110.44738254744784, -7.067136165168929], [110.445496, -7.066374], [110.44544105441298, -7.066278065005053], [110.445097, -7.066126], [110.44461581689285, -7.065094683767304], [110.44429028769065, -7.064963229243652], [110.44395553249991, -7.065045560925699], [110.4427736476672, -7.065586540280611], [110.44190010011906, -7.066047791351014], [110.443005, -7.067078], [110.443289, -7.068657], [110.441719, -7.069657], [110.442901, -7.072657], [110.442409, -7.073062]], [[110.43768046584948, -7.05105881141867], [110.43721791314063, -7.052272860523277], [110.43741087534902, -7.052415619247117], [110.437858, -7.05196], [110.43768046584948, -7.05105881141867]]], [[[110.462746, -7.068987], [110.462044, -7.069119], [110.4616456969697, -7.068801], [110.46115337796977, -7.068801], [110.460378, -7.069519], [110.458436, -7.069036], [110.457909, -7.067563], [110.456703, -7.066094], [110.456985, -7.063702], [110.45738071297126, -7.063571498913737], [110.457547, -7.063359], [110.45800485027796, -7.063304473938659], [110.458109, -7.063203], [110.45817899209848, -7.063192844798717], [110.458409, -7.062976], [110.45859656145649, -7.06294393445826], [110.45878, -7.062497], [110.459465, -7.062182], [110.459622, -7.061339], [110.45976324520116, -7.061311324715663], [110.459764, -7.061298], [110.45990200789537, -7.061234718330907], [110.45990759676044, -7.061184700552237], [110.458254, -7.060786], [110.458037, -7.06022], [110.458254, -7.059655], [110.458256, -7.05965436183022], [110.458256, -7.059458], [110.458682, -7.059339140108241], [110.458682, -7.059185], [110.45922691411532, -7.058920047747522], [110.458374, -7.058666], [110.45833510818093, -7.058490257592575], [110.458306, -7.058481], [110.457919, -7.057994], [110.45818057914157, -7.057791979495931], [110.458054, -7.05722], [110.45882, -7.056455], [110.45913249839619, -7.05644272711257], [110.459163, -7.056364], [110.45924763915605, -7.056357209662522], [110.459345, -7.05626], [110.460345, -7.056153], [110.46038924116193, -7.056193347939683], [110.46236247306103, -7.055869578702553], [110.461325, -7.055462], [110.46126952160796, -7.054511932536227], [110.46102, -7.054228], [110.46102, -7.053579], [110.46121101488177, -7.053510004850225], [110.461205, -7.053407], [110.46154443162837, -7.053259799438757], [110.461684, -7.053084], [110.46453082931966, -7.051964694977316], [110.464793, -7.051851], [110.46481205445235, -7.051854123998806], [110.46482, -7.051851], [110.46482663104811, -7.051856513848011], [110.465775, -7.052012], [110.466543, -7.053244], [110.467968, -7.053819], [110.46793951017953, -7.053915161603038], [110.46842810438037, -7.053690341492406], [110.468059, -7.052855], [110.469398, -7.049855], [110.468849, -7.047739], [110.46869278817996, -7.047609092898481], [110.46831, -7.04747], [110.46797686313353, -7.047013723433713], [110.467786, -7.046855], [110.46779799103096, -7.046768733590257], [110.467401, -7.046225], [110.46739024964911, -7.04616161], [110.46667955672176, -7.045219528677684], [110.466463, -7.045163], [110.46635804752738, -7.044809644731945], [110.465588, -7.044382], [110.46557643467102, -7.044363403639759], [110.465459, -7.04433], [110.4654472901366, -7.044306609222191], [110.463613, -7.043922], [110.462776, -7.041759], [110.46296607679183, -7.041488025473241], [110.46336701242872, -7.03981260728111], [110.462866, -7.038523], [110.46301607879961, -7.038147274554492], [110.46308682266655, -7.037885088510596], [110.46303687960159, -7.03718552369465], [110.462976, -7.036785], [110.4630256669913, -7.036727433179392], [110.46312111975975, -7.036438017667956], [110.462326, -7.033999], [110.46333261845398, -7.032953162645231], [110.463805, -7.031781], [110.462587, -7.029781], [110.465264, -7.027781], [110.46528854874259, -7.027710131458697], [110.461786, -7.028501], [110.459472, -7.030661], [110.45921848683483, -7.03061739573559], [110.459117, -7.030702], [110.45893215488384, -7.030568146640021], [110.458472, -7.030489], [110.45824498384832, -7.030070540028095], [110.457957, -7.029862], [110.45743115011565, -7.028570396367018], [110.45681683200257, -7.027438020813856], [110.455935, -7.026492], [110.4561912772371, -7.0257223986874], [110.45586202009078, -7.024055407512592], [110.45562, -7.023199], [110.45564043498443, -7.022933547529014], [110.455555, -7.022501], [110.4556966902499, -7.022202786060758], [110.455721, -7.021887], [110.4557840932413, -7.021732494438782], [110.455021, -7.020848], [110.453389, -7.020966], [110.452389, -7.019689], [110.449124, -7.018745], [110.448145, -7.01648], [110.448404, -7.01548], [110.447359, -7.01451], [110.446345, -7.01248], [110.449076, -7.010168], [110.449393, -7.00948], [110.451805, -7.00848], [110.454389, -7.008469], [110.4565, -7.010369], [110.456989, -7.01288], [110.456629, -7.01448], [110.457389, -7.016175], [110.458232, -7.016637], [110.458931, -7.01848], [110.45789563229464, -7.021018732356666], [110.4583517899201, -7.021162193929871], [110.458365, -7.021083], [110.45858963355766, -7.021019651782183], [110.459112, -7.020515], [110.45985689494071, -7.020343665001335], [110.46047742832268, -7.019534555472901], [110.460588, -7.019225], [110.46098461153228, -7.018880971328416], [110.460719, -7.018683], [110.46191278199873, -7.018075857945219], [110.46227, -7.017766], [110.462555, -7.017051], [110.463588, -7.017061], [110.46389738257899, -7.017466909943639], [110.464281, -7.017521], [110.46499391575091, -7.018087768021977], [110.465983, -7.017659], [110.46915, -7.019569], [110.46988832918512, -7.021015617851853], [110.470192, -7.021013], [110.47085113593214, -7.024460363661825], [110.470983, -7.025064], [110.4709752617783, -7.025109557417904], [110.471148, -7.026013], [110.4707414262347, -7.026486223012642], [110.470699, -7.026736], [110.47005453803293, -7.027372394328307], [110.47028470805779, -7.027685933023587], [110.470431, -7.027761], [110.4705154991103, -7.028000317685689], [110.471278, -7.029039], [110.471077, -7.030781], [110.47096293964726, -7.030914338158821], [110.47096, -7.030999], [110.47077868499785, -7.031129734439121], [110.46968501294378, -7.03240825247417], [110.46939268988706, -7.032990080045733], [110.46937399928319, -7.033099389438021], [110.4705981913431, -7.033706833272305], [110.470749, -7.033568], [110.47113668699208, -7.033974034696399], [110.471187, -7.033999], [110.47121525543369, -7.034056321474099], [110.4716948872422, -7.034558652374339], [110.472431, -7.034739], [110.473065, -7.035999], [110.47268357566979, -7.036294907160761], [110.473707, -7.037785], [110.47356983436741, -7.038459032592604], [110.473604, -7.038714], [110.47343017165664, -7.0391453358396], [110.4733, -7.039785], [110.471696, -7.040297], [110.471412, -7.042013], [110.47108930871123, -7.042155616986316], [110.47047581761925, -7.044512176878698], [110.471156, -7.044863], [110.47123498279043, -7.045075006437512], [110.473386, -7.046202], [110.473554, -7.047855], [110.474733, -7.047479], [110.475574, -7.048014], [110.477267, -7.050855], [110.476905, -7.051028], [110.477006, -7.052582], [110.477922, -7.052855], [110.475369, -7.054492], [110.47526345472556, -7.054744080616139], [110.475394, -7.055841], [110.476024, -7.055995], [110.4738478653752, -7.056617981068952], [110.47322282933374, -7.057046599534394], [110.4731974010421, -7.057423639720585], [110.473431, -7.057507], [110.47367960434944, -7.058087298387882], [110.47373877758879, -7.058113914068986], [110.475998, -7.058237], [110.477164, -7.059071], [110.476614, -7.06037], [110.47524, -7.061112], [110.47443, -7.059805], [110.4740049953338, -7.059810867914523], [110.47329280037488, -7.059878733151573], [110.47328908512789, -7.05988053448345], [110.4730331692819, -7.060309773303014], [110.47299, -7.060995], [110.471885, -7.06135], [110.47164848894111, -7.060885654239014], [110.47102697749976, -7.060421385192314], [110.47100911742126, -7.060421843143045], [110.47094148720768, -7.060671725669246], [110.470798, -7.062257], [110.47061261884951, -7.062295239055168], [110.470562, -7.062891], [110.47042612338406, -7.062899136755485], [110.470417, -7.063006], [110.46978224882261, -7.063118014913656], [110.46974782766166, -7.063245195447305], [110.469947, -7.063364], [110.470162, -7.064922], [110.469389, -7.065696], [110.4675462235414, -7.065792667385115], [110.46723466779426, -7.065967968690703], [110.466696, -7.06823], [110.464389, -7.068965], [110.46361749613261, -7.068516163438655], [110.463378, -7.068822], [110.46295403640684, -7.068773456168582], [110.462746, -7.068987]], [[110.46862163862554, -7.056064522091499], [110.46864485105135, -7.055824762166994], [110.46842470918453, -7.055430948451755], [110.467627, -7.054995], [110.46763355252571, -7.05494785952723], [110.467547, -7.05524], [110.46862163862554, -7.056064522091499]]]]}}, {"type": "Feature", "properties": {"minutes": 5, "halte_count": 42, "area_km2": 5.786}, "geometry": {"type": "MultiPolygon", "coordinates": [[[[110.436005, -7.069491], [110.434005, -7.071133], [110.432401, -7.069261], [110.432464, -7.068198], [110.432031, -7.067684], [110.432524, -7.068138], [110.433005, -7.068039], [110.434005, -7.067002], [110.43515, -7.066803], [110.437005, -7.065138], [110.438005, -7.065629], [110.440143, -7.068519], [110.439396, -7.069657], [110.439877, -7.070657], [110.437005, -7.07174], [110.436005, -7.069491]]], [[[110.447733, -7.057776], [110.4477739334554, -7.058012891486512], [110.44794897595371, -7.058232569821902], [110.448039, -7.057801], [110.448874, -7.05754], [110.449372, -7.058137], [110.44950773809161, -7.058790436859643], [110.449854, -7.059087], [110.45024200183893, -7.059807863911968], [110.450874, -7.059175], [110.451266, -7.059635], [110.451207, -7.060969], [110.448725, -7.061487], [110.44833885514154, -7.061844394663602], [110.448363, -7.062512], [110.4473656647403, -7.062832240535819], [110.44693493689175, -7.06340270451197], [110.446441, -7.064315], [110.44564387248985, -7.06415079173291], [110.445496, -7.064204], [110.44529586933213, -7.063970647641255], [110.44421943406019, -7.062944487139894], [110.443101, -7.062761], [110.44309372032507, -7.062754378374774], [110.442771, -7.0627], [110.44204108778841, -7.062874084062464], [110.44157, -7.063405], [110.44057, -7.063239], [110.44038329280917, -7.062534506006695], [110.440323, -7.062629], [110.439333, -7.062639], [110.43852, -7.063383], [110.43689687733308, -7.060912818659167], [110.436262, -7.061702], [110.435262, -7.06215], [110.433979, -7.061438], [110.43373083762147, -7.060699050658076], [110.433686, -7.060673], [110.43362546246335, -7.060385276651713], [110.43328424987422, -7.059369253112219], [110.432624, -7.059199], [110.43235951521976, -7.058501721942989], [110.43232083039965, -7.058467375327759], [110.430916, -7.058137], [110.431686, -7.05676], [110.432045, -7.056778], [110.431894, -7.057137], [110.43228831097193, -7.057517612824013], [110.4327236553255, -7.056648607583035], [110.432049, -7.056137], [110.43205212371605, -7.056126710594153], [110.429697, -7.054722], [110.42988862493247, -7.053483936305923], [110.429807, -7.053333], [110.4299180608078, -7.053293754954939], [110.429927, -7.053236], [110.430414, -7.053008], [110.4306760155364, -7.052984549609492], [110.431329, -7.052024], [110.433067, -7.050762], [110.433639, -7.048821], [110.434639, -7.048589], [110.434493, -7.050333], [110.435251, -7.051333], [110.434259, -7.051954], [110.43416074470115, -7.053286647111699], [110.434414, -7.053353], [110.43552129058972, -7.054772322210575], [110.436279, -7.054559], [110.438069, -7.054751], [110.439279, -7.053498], [110.440279, -7.053852], [110.44154317340715, -7.055256045069689], [110.442607, -7.055004], [110.44279879772526, -7.05407981910899], [110.442378, -7.053908], [110.441378, -7.051825], [110.441354, -7.050653], [110.442922, -7.049198], [110.444378, -7.048653], [110.444474, -7.04775], [110.445378, -7.047204], [110.446081, -7.04895], [110.447026, -7.049653], [110.446977, -7.052253], [110.44654648511336, -7.052851695994269], [110.447176, -7.053543], [110.446667, -7.054064], [110.446289, -7.055686], [110.44371948455888, -7.057189927083449], [110.44457, -7.057213], [110.44457171173896, -7.057215097271892], [110.444771, -7.057205], [110.44483838173036, -7.057288618625157], [110.445441, -7.056757], [110.446763, -7.05746], [110.4468920831924, -7.0576260765463], [110.44717443372889, -7.057676415613379], [110.447429, -7.05758], [110.44756069802308, -7.057745281018972], [110.447733, -7.057776]], [[110.44130760481917, -7.057088057387867], [110.44152, -7.057255], [110.44161321983673, -7.057399490746927], [110.442432, -7.057155], [110.44292616801272, -7.057168405867511], [110.442389, -7.056301], [110.44196997922406, -7.056243590104034], [110.441447, -7.05696], [110.44130760481917, -7.057088057387867]], [[110.445378, -7.05199], [110.443898, -7.053174], [110.44384634474464, -7.053278005869935], [110.444147, -7.05371], [110.44605821501628, -7.052470577061943], [110.445888, -7.052143], [110.445378, -7.05199]]], [[[110.461139, -7.067333], [110.460378, -7.06684], [110.459517, -7.064955], [110.458651, -7.064094], [110.459555, -7.063272], [110.459921, -7.061638], [110.46040274086178, -7.061378012868242], [110.46108228897683, -7.060744523287998], [110.459899, -7.06022], [110.45995220704093, -7.059216093567255], [110.459808, -7.057994], [110.46005250352556, -7.057323707064897], [110.460058, -7.05722], [110.4603114326397, -7.057073884852316], [110.461165, -7.056367], [110.46233118516851, -7.056227997514889], [110.46258076760756, -7.056042869651202], [110.463004, -7.055508], [110.46307480599556, -7.055508500985817], [110.463112, -7.055313], [110.463793, -7.054797], [110.465562, -7.055994], [110.46599, -7.056994], [110.46595505646468, -7.057013996300616], [110.46666, -7.057588], [110.46702033426361, -7.058252306082231], [110.46768628328087, -7.057680077106458], [110.468048, -7.057196], [110.46886438090236, -7.057400911606491], [110.47115029731535, -7.054481559617899], [110.470504, -7.054084], [110.47029, -7.053298], [110.470719, -7.051855], [110.470054, -7.050855], [110.469657, -7.047931], [110.469733, -7.047595], [110.470733, -7.047508], [110.471733, -7.048427], [110.473497, -7.048855], [110.474128, -7.049855], [110.474271, -7.051855], [110.473909, -7.052855], [110.472733, -7.053464], [110.47187471223815, -7.05464500396031], [110.47224, -7.054805], [110.472483, -7.054995], [110.47203, -7.055995], [110.472885, -7.05635], [110.472996, -7.058239], [110.473543, -7.058995], [110.471316375328, -7.059724859750921], [110.471121, -7.06071], [110.47068132277462, -7.061060571042128], [110.4705255117478, -7.0617981051059], [110.470497, -7.062133], [110.47017554948387, -7.062454915039997], [110.470119, -7.062708], [110.46988083923777, -7.062750051167943], [110.469805, -7.062826], [110.4697126722439, -7.0627797437942], [110.46938947306961, -7.062836809881119], [110.469383, -7.062842], [110.46931743052636, -7.062849530167436], [110.467661, -7.063142], [110.4676095439664, -7.063045668264128], [110.46746463536746, -7.063062309941309], [110.468435, -7.063969], [110.466691, -7.065225], [110.463389, -7.066347], [110.46254443966657, -7.065332245805112], [110.462036, -7.06595], [110.46175221579338, -7.065828540359564], [110.461656, -7.066094], [110.461596, -7.066876], [110.461951, -7.067094], [110.461139, -7.067333]]], [[[110.46262928678159, -7.027482851155058], [110.462607, -7.027501], [110.460686, -7.027501], [110.45959497614032, -7.027129836199303], [110.459327, -7.027177], [110.458297, -7.024492], [110.458351, -7.023517], [110.45923518594851, -7.023306692613462], [110.459263, -7.023292], [110.45928781160777, -7.023294175376694], [110.460327, -7.023047], [110.46059960930297, -7.022759942403965], [110.460588, -7.022539], [110.46061108543623, -7.022490743591725], [110.460477, -7.021683], [110.460977, -7.02038], [110.462281, -7.019553], [110.46360937187653, -7.020277380977216], [110.46459763439547, -7.020570927388305], [110.464983, -7.020416], [110.466983, -7.020925], [110.467336, -7.021736], [110.466761, -7.022736], [110.46724904915517, -7.023161345622136], [110.468244, -7.023873], [110.468695, -7.025013], [110.468104, -7.025951], [110.467104, -7.025666], [110.466104, -7.02625], [110.465538, -7.025579], [110.46391175180591, -7.02537285586272], [110.463983, -7.025492], [110.463886, -7.026492], [110.462673, -7.027492], [110.46262928678159, -7.027482851155058]]], [[[110.455389, -7.018725], [110.453389, -7.018702], [110.451254, -7.017615], [110.44993, -7.01348], [110.451389, -7.011808], [110.453389, -7.0116], [110.454389, -7.012007], [110.455798, -7.01348], [110.45552, -7.013612], [110.45532, -7.016412], [110.455957, -7.018049], [110.455389, -7.018725]]], [[[110.469054, -7.043523], [110.46883194436664, -7.044844004431113], [110.468819, -7.045134], [110.46877846189803, -7.045162170545437], [110.46876, -7.045272], [110.468126, -7.045638], [110.46732077120444, -7.044849738273006], [110.466824, -7.04447], [110.465529, -7.044097], [110.4654733826649, -7.043983462479033], [110.465012, -7.043819], [110.464538, -7.042523], [110.46483536904236, -7.041742328662299], [110.464909, -7.041224], [110.46524933153455, -7.040655569092511], [110.465496, -7.040008], [110.466012, -7.039594], [110.4660534533632, -7.039599567606778], [110.46561606329178, -7.038835753232584], [110.465445, -7.038714], [110.46601184504023, -7.037909932975863], [110.466558, -7.036785], [110.46702547328049, -7.036472106083315], [110.46703946757299, -7.036452255245209], [110.465587, -7.034999], [110.4657737874729, -7.034869672401689], [110.465684, -7.034781], [110.46640637497678, -7.034431682522966], [110.4665445225957, -7.034336032105467], [110.46664108945902, -7.033962483214631], [110.466622, -7.033808], [110.465431, -7.033565], [110.464942, -7.032999], [110.465244, -7.031813], [110.4652598833202, -7.03180463170055], [110.465315, -7.031561], [110.46674343641115, -7.030830868675822], [110.46655888712499, -7.030149875], [110.466394, -7.029781], [110.468536, -7.028741], [110.469596, -7.030781], [110.46947392989647, -7.030985472535231], [110.469481, -7.030999], [110.469157, -7.031726], [110.46915587244028, -7.031878630582175], [110.46933, -7.031987], [110.469316, -7.033781], [110.46914056158707, -7.033951163349109], [110.469135, -7.034704], [110.468928, -7.035497], [110.46887699314874, -7.035542895944329], [110.469062, -7.035781], [110.46895413063835, -7.035839600066056], [110.46914702463229, -7.036453793912837], [110.4704979232287, -7.03751790672125], [110.470776, -7.037714], [110.47077718625201, -7.037737884268644], [110.470837, -7.037785], [110.471035, -7.040785], [110.470736, -7.041785], [110.469458, -7.042059], [110.469185, -7.042491], [110.46864732530561, -7.042103730976548], [110.468626, -7.042138], [110.467961, -7.042472], [110.469054, -7.043523]]]]}}, {"type": "Feature", "properties": {"minutes": 3, "halte_count": 42, "area_km2": 2.982}, "geometry": {"type": "MultiPolygon", "coordinates": [[[[110.435537, -7.06919], [110.434873, -7.069789], [110.433322, -7.068657], [110.434523, -7.067175], [110.435809, -7.066462], [110.437005, -7.066534], [110.438561, -7.068657], [110.438229, -7.069882], [110.437005, -7.070355], [110.436442, -7.06922], [110.435537, -7.06919]]], [[[110.443771, -7.062125], [110.44360330860364, -7.062040483536236], [110.44357, -7.062062], [110.44274966092695, -7.061620657578696], [110.44237007402074, -7.061614566468604], [110.44157, -7.061977], [110.44062597453485, -7.061006479616372], [110.439579, -7.061885], [110.43852, -7.061883], [110.437125, -7.059825], [110.43706713766188, -7.05894829790722], [110.436262, -7.060218], [110.435262, -7.060573], [110.434262, -7.060332], [110.43403928984169, -7.059488674406508], [110.432343, -7.058137], [110.433176, -7.057628], [110.433686, -7.056095], [110.43471055524651, -7.056299398771679], [110.435128, -7.056022], [110.436262, -7.056111], [110.43645600652174, -7.056311935326093], [110.436333, -7.05596], [110.436768, -7.05545], [110.43854, -7.055222], [110.439279, -7.054551], [110.440767, -7.05596], [110.440262, -7.056944], [110.438279, -7.057674], [110.43726823234442, -7.057483342023358], [110.437262, -7.058641], [110.43720835459494, -7.05872559880377], [110.438536, -7.057842], [110.43952, -7.057713], [110.440896, -7.058449], [110.44133256813188, -7.0589768714846], [110.44173405940212, -7.058561241481105], [110.441755, -7.058478], [110.44257, -7.058125], [110.44342911592041, -7.058491495797512], [110.443771, -7.058485], [110.44405165290759, -7.058757067863143], [110.444089, -7.058773], [110.44414961411688, -7.05885203248372], [110.44452439869497, -7.059215352572489], [110.445496, -7.058183], [110.44650745261762, -7.058767113886678], [110.446781107801, -7.05871867691922], [110.446874, -7.058598], [110.44697466900786, -7.058684416585607], [110.447429, -7.058604], [110.44784433165464, -7.059058127677389], [110.448874, -7.059011], [110.45016, -7.060349], [110.45016, -7.060922], [110.44748776895703, -7.061662027464727], [110.44743015623023, -7.06170133629778], [110.447382, -7.061782], [110.445441, -7.063094], [110.44425374578435, -7.06182260965883], [110.443771, -7.062125]]], [[[110.44202, -7.055417], [110.4421, -7.054497], [110.442861, -7.054258], [110.443147, -7.05347], [110.444147, -7.053793], [110.445147, -7.053401], [110.446075, -7.053615], [110.445186, -7.055543], [110.443147, -7.056107], [110.44167, -7.055543], [110.44202, -7.055417]]], [[[110.430727, -7.053722], [110.43126477135223, -7.053575682838961], [110.431417, -7.052333], [110.432505, -7.0512], [110.433351, -7.051046], [110.433639, -7.049914], [110.434099, -7.050333], [110.43415, -7.051333], [110.433639, -7.053872], [110.43362440767783, -7.053881324690175], [110.43453, -7.054722], [110.433414, -7.055495], [110.432414, -7.055603], [110.431216, -7.054722], [110.430727, -7.053722]]], [[[110.443378, -7.052722], [110.442281, -7.051653], [110.44303, -7.050653], [110.442953, -7.049653], [110.444751, -7.049027], [110.445378, -7.04829], [110.44579, -7.049241], [110.446476, -7.049653], [110.446523, -7.051653], [110.444672, -7.051948], [110.444378, -7.052594], [110.443378, -7.052722]]], [[[110.46057187008516, -7.061518282962443], [110.461036, -7.061055], [110.46132684368453, -7.060983161609918], [110.461708, -7.060713], [110.46192516055154, -7.060744922601076], [110.46203922398632, -7.060645372614085], [110.46177440003463, -7.060223012362912], [110.46142, -7.059828], [110.46145451265994, -7.059750127526185], [110.460665, -7.05922], [110.460747, -7.058147], [110.460807304369, -7.058063794328958], [110.460802, -7.057994], [110.461513, -7.056715], [110.463793, -7.055932], [110.46488, -7.056994], [110.46463821948797, -7.057158171952614], [110.464702, -7.05722], [110.46469082483692, -7.057232786227786], [110.46479295227876, -7.057345244317946], [110.465498, -7.05775], [110.466213, -7.058903], [110.46564386343712, -7.05913117917498], [110.46498512663347, -7.059645421209712], [110.464345, -7.060347], [110.46321405128205, -7.060636522871793], [110.46268119499106, -7.060856059663684], [110.462708, -7.06086], [110.46315536333772, -7.061199217486534], [110.46375615885623, -7.061409195520254], [110.464389, -7.061232], [110.466389, -7.061902], [110.466588, -7.063922], [110.463389, -7.064909], [110.46294416624256, -7.063840332599844], [110.4623818247588, -7.06421866446469], [110.462036, -7.064634], [110.46196699146886, -7.064613918517439], [110.461378, -7.066224], [110.459638, -7.064094], [110.46005361670639, -7.062733681981256], [110.460173, -7.061801], [110.46057187008516, -7.061518282962443]]], [[[110.461327, -7.026387], [110.4606696378977, -7.026155844852756], [110.460021, -7.025952], [110.46000961573932, -7.025923754322029], [110.459925, -7.025894], [110.459251, -7.024417], [110.46130512118796, -7.022781420845995], [110.461307, -7.022683], [110.462168, -7.021683], [110.462164, -7.020683], [110.463281, -7.020575], [110.46447949331865, -7.021680610086459], [110.4645654127908, -7.021736953066263], [110.464983, -7.021496], [110.465983, -7.02171], [110.467315, -7.024736], [110.46728190198135, -7.024752375070785], [110.467461, -7.025013], [110.466104, -7.025589], [110.465848, -7.025269], [110.463956, -7.025161], [110.46373135536813, -7.024245316551344], [110.46272398662191, -7.024162964156341], [110.462459, -7.024489], [110.462765, -7.025501], [110.462472, -7.026141], [110.46224116074778, -7.026202634080344], [110.462145, -7.02631], [110.46167243703945, -7.026354483310467], [110.461472, -7.026408], [110.46138715839994, -7.026381337167731], [110.461327, -7.026387]]], [[[110.45173, -7.01648], [110.451442, -7.013533], [110.453389, -7.012947], [110.454389, -7.013401], [110.454853, -7.015016], [110.454779, -7.016871], [110.453389, -7.017682], [110.452468, -7.017401], [110.45173, -7.01648]]], [[[110.4706, -7.059929], [110.47042301591826, -7.06055500421048], [110.47042, -7.060879], [110.47028336846827, -7.061048946325561], [110.469939, -7.062267], [110.46981895051361, -7.062214619808558], [110.469775, -7.062364], [110.46937623709121, -7.062177263064554], [110.469083, -7.062542], [110.46797, -7.062584], [110.465754, -7.061506], [110.465711, -7.06017], [110.467048, -7.058554], [110.468048, -7.058399], [110.46829124502345, -7.058494595294219], [110.468661, -7.058138], [110.46941984419264, -7.058077292464588], [110.46972644817686, -7.057998648542637], [110.469724, -7.057995], [110.47124, -7.055793], [110.472923, -7.056995], [110.472625, -7.058381], [110.47124, -7.059027], [110.47119085768828, -7.059014075572023], [110.471311, -7.059249], [110.47064834951753, -7.059867422054482], [110.4706, -7.059929]]], [[[110.470915, -7.052855], [110.471212, -7.051855], [110.470436, -7.050855], [110.470733, -7.04859], [110.472733, -7.049395], [110.473442, -7.050855], [110.473011, -7.052134], [110.471733, -7.053477], [110.470915, -7.052855]]], [[[110.467936, -7.04347], [110.46789996448419, -7.043515777675598], [110.468012, -7.043857], [110.467619303392, -7.043872315167712], [110.467592, -7.043907], [110.466156, -7.044002], [110.46611738157867, -7.043930890118432], [110.466012, -7.043935], [110.465081, -7.042523], [110.46556680621738, -7.041615048530355], [110.465608, -7.04147], [110.46568056153629, -7.041402444604581], [110.466012, -7.040783], [110.46631350200302, -7.040813171751553], [110.466927, -7.040242], [110.46718494377821, -7.04016392425916], [110.467445, -7.039714], [110.466641, -7.038714], [110.468075, -7.036887], [110.469075, -7.037534], [110.46910675256495, -7.037591921641574], [110.469185, -7.037642], [110.470276, -7.039694], [110.46997801626964, -7.040625519340486], [110.469959, -7.040714], [110.46994637169563, -7.040724442636315], [110.469927, -7.040785], [110.469185, -7.041487], [110.4689397068064, -7.041429110806312], [110.46806496927357, -7.041326379296201], [110.46759854673283, -7.041619292651782], [110.467574, -7.042523], [110.46786757318966, -7.043417124737473], [110.467936, -7.04347]]], [[[110.466854, -7.033576], [110.46586223717723, -7.032918946824824], [110.465522, -7.032781], [110.465788, -7.031781], [110.46699218512416, -7.031279012040699], [110.467431, -7.030247], [110.46745547324267, -7.030275726096831], [110.467536, -7.030092], [110.4683, -7.030781], [110.46828703557772, -7.031251793734974], [110.468697, -7.031733], [110.4689574427622, -7.032600685623525], [110.469185, -7.032781], [110.468823, -7.033781], [110.4687263555372, -7.033892437748878], [110.468431, -7.034645], [110.467431, -7.035567], [110.466863, -7.034999], [110.466854, -7.033576]]]]}}]}