{"type": "FeatureCollection", "properties": {"method": "greedy_maximal_covering_location_problem", "served_threshold_minutes": 5, "total_demand_population": 148042, "already_served_population": 20015}, "features": [{"type": "Feature", "properties": {"rank": 1, "kelurahan": "Tandang", "population_gained": 4919, "nearest_existing_halte_m": 940, "cumulative_population_served": 24934, "cumulative_coverage_pct": 16.8}, "geometry": {"type": "Point", "coordinates": [110.4486422, -7.0190469]}}, {"type": "Feature", "properties": {"rank": 2, "kelurahan": "Meteseh", "population_gained": 4475, "nearest_existing_halte_m": 1335, "cumulative_population_served": 29409, "cumulative_coverage_pct": 19.9}, "geometry": {"type": "Point", "coordinates": [110.461117, -7.0724697]}}, {"type": "Feature", "properties": {"rank": 3, "kelurahan": "Sendangmulyo", "population_gained": 4317, "nearest_existing_halte_m": 1551, "cumulative_population_served": 33726, "cumulative_coverage_pct": 22.8}, "geometry": {"type": "Point", "coordinates": [110.4781448, -7.0392008]}}, {"type": "Feature", "properties": {"rank": 4, "kelurahan": "Sendangmulyo", "population_gained": 3674, "nearest_existing_halte_m": 748, "cumulative_population_served": 37400, "cumulative_coverage_pct": 25.3}, "geometry": {"type": "Point", "coordinates": [110.4720548, -7.0359037]}}, {"type": "Feature", "properties": {"rank": 5, "kelurahan": "Sendangmulyo", "population_gained": 3306, "nearest_existing_halte_m": 1201, "cumulative_population_served": 40706, "cumulative_coverage_pct": 27.5}, "geometry": {"type": "Point", "coordinates": [110.4724109, -7.0309223]}}]}